ORBCOMM-X [-]           
1 21576U 91050C   24091.87491058  .00000545  00000+0  17783-3 0  9996
2 21576  98.3960 160.3301 0004874  86.9085 273.2663 14.42423447718337
ORBCOMM FM01 [-]        
1 23545U 95017A   24092.15517945  .00006922  00000+0  94138-3 0  9991
2 23545  69.9665  86.9374 0009056 272.5753  87.4359 14.79144863547256
ORBCOMM FM02 [-]        
1 23546U 95017B   24092.17297780  .00006098  00000+0  83871-3 0  9992
2 23546  69.9678 106.2472 0010872 268.6620  91.3283 14.78726137546857
ORBCOMM FM08 [-]        
1 25112U 97084A   24091.91717529  .00002113  00000+0  67761-3 0  9992
2 25112  45.0153 325.1180 0007128 173.7886 186.3053 14.42262202377445
ORBCOMM FM10 [-]        
1 25113U 97084B   24091.92183319  .00002339  00000+0  74681-3 0  9997
2 25113  45.0166 326.9218 0004942 142.6545 217.4650 14.42181060552591
ORBCOMM FM11 [+]        
1 25114U 97084C   24092.00654740  .00002235  00000+0  71719-3 0  9993
2 25114  45.0152 326.5548 0005682 143.8477 216.2758 14.42065095377600
ORBCOMM FM12 [-]        
1 25115U 97084D   24091.96535565  .00002124  00000+0  68412-3 0  9994
2 25115  45.0156 326.4336 0004715 143.4912 216.6260 14.42032115377604
ORBCOMM FM09 [-]        
1 25116U 97084E   24091.90647120  .00002089  00000+0  67408-3 0  9994
2 25116  45.0162 327.3899 0005862 129.0126 231.1246 14.41997479377593
